start=new Date('2022-10-05T00:00:00.000Z').valueOf();
sats=[{"TLE_LINE1":"1 48363U 21038L   22277.11863209  .00001929  00000-0  14835-3 0  9993","OBJECT_ID":"2021-038L","FILE":"3591197","SITE":"AFETR","OBJECT_TYPE":"PAYLOAD","MEAN_MOTION_DDOT":"0.0000000000000","DECAY_DATE":null,"TIME_SYSTEM":"UTC","REV_AT_EPOCH":"7830","SEMIMAJOR_AXIS":"6925.335","MEAN_ANOMALY":"286.2157","PERIOD":"95.592","COUNTRY_CODE":"US","NORAD_CAT_ID":"48363","BSTAR":"0.00014835000000","ELEMENT_SET_NO":"999","GP_ID":"214158832","EPOCH":"2022-10-04T02:50:49.812576","MEAN_MOTION":"15.06404351","EPHEMERIS_TYPE":"0","CLASSIFICATION_TYPE":"U","INCLINATION":"53.0564","PERIAPSIS":"546.089","RA_OF_ASC_NODE":"219.6406","MEAN_MOTION_DOT":"0.00001929","RCS_SIZE":"LARGE","OBJECT_NAME":"STARLINK-2626","TLE_LINE2":"2 48363  53.0564 219.6406 0001605  73.9009 286.2157 15.06404351 78305","ECCENTRICITY":"0.00016050","REF_FRAME":"TEME","CENTER_NAME":"EARTH","MEAN_ELEMENT_THEORY":"SGP4","APOAPSIS":"548.312","LAUNCH_DATE":"2021-05-04","ARG_OF_PERICENTER":"73.9009"},{"GP_ID":"214157095","EPOCH":"2022-10-04T12:45:19.789920","MEAN_MOTION":"15.06415679","SEMIMAJOR_AXIS":"6925.301","MEAN_ANOMALY":"285.2332","NORAD_CAT_ID":"48364","COUNTRY_CODE":"US","BSTAR":"0.00036404000000","ELEMENT_SET_NO":"999","PERIOD":"95.591","OBJECT_TYPE":"PAYLOAD","SITE":"AFETR","REV_AT_EPOCH":"7836","TIME_SYSTEM":"UTC","DECAY_DATE":null,"MEAN_MOTION_DDOT":"0.0000000000000","FILE":"3591197","OBJECT_ID":"2021-038M","TLE_LINE1":"1 48364U 21038M   22277.53147905  .00005147  00000-0  36404-3 0  9990","ARG_OF_PERICENTER":"74.8837","LAUNCH_DATE":"2021-05-04","APOAPSIS":"548.296","MEAN_ELEMENT_THEORY":"SGP4","CENTER_NAME":"EARTH","TLE_LINE2":"2 48364  53.0544 217.9820 0001633  74.8837 285.2332 15.06415679 78360","RCS_SIZE":"LARGE","MEAN_MOTION_DOT":"0.00005147","OBJECT_NAME":"STARLINK-2611","RA_OF_ASC_NODE":"217.9820","REF_FRAME":"TEME","ECCENTRICITY":"0.00016330","EPHEMERIS_TYPE":"0","INCLINATION":"53.0544","PERIAPSIS":"546.035","CLASSIFICATION_TYPE":"U"},{"ECCENTRICITY":"0.00015530","REF_FRAME":"TEME","RCS_SIZE":"LARGE","OBJECT_NAME":"STARLINK-2608","MEAN_MOTION_DOT":"0.00002290","RA_OF_ASC_NODE":"217.6595","TLE_LINE2":"2 48365  53.0527 217.6595 0001553 100.0343 260.0821 15.06407344 78378","PERIAPSIS":"546.116","INCLINATION":"53.0527","CLASSIFICATION_TYPE":"U","EPHEMERIS_TYPE":"0","LAUNCH_DATE":"2021-05-04","ARG_OF_PERICENTER":"100.0343","CENTER_NAME":"EARTH","MEAN_ELEMENT_THEORY":"SGP4","APOAPSIS":"548.267","TIME_SYSTEM":"UTC","DECAY_DATE":null,"MEAN_MOTION_DDOT":"0.0000000000000","REV_AT_EPOCH":"7837","SITE":"AFETR","OBJECT_TYPE":"PAYLOAD","OBJECT_ID":"2021-038N","TLE_LINE1":"1 48365U 21038N   22277.55725097  .00002290  00000-0  17257-3 0  9998","FILE":"3591197","MEAN_MOTION":"15.06407344","EPOCH":"2022-10-04T13:22:26.483808","GP_ID":"214157345","PERIOD":"95.592","BSTAR":"0.00017257000000","COUNTRY_CODE":"US","ELEMENT_SET_NO":"999","NORAD_CAT_ID":"48365","SEMIMAJOR_AXIS":"6925.326","MEAN_ANOMALY":"260.0821"},{"APOAPSIS":"548.099","MEAN_ELEMENT_THEORY":"SGP4","CENTER_NAME":"EARTH","ARG_OF_PERICENTER":"99.2720","LAUNCH_DATE":"2021-05-04","EPHEMERIS_TYPE":"0","INCLINATION":"53.0530","PERIAPSIS":"546.250","CLASSIFICATION_TYPE":"U","TLE_LINE2":"2 48366  53.0530 212.4326 0001335  99.2720 260.8420 15.06412860 78444","MEAN_MOTION_DOT":"0.00003911","RCS_SIZE":"LARGE","OBJECT_NAME":"STARLINK-2631","RA_OF_ASC_NODE":"212.4326","REF_FRAME":"TEME","ECCENTRICITY":"0.00013350","MEAN_ANOMALY":"260.8420","SEMIMAJOR_AXIS":"6925.309","COUNTRY_CODE":"US","BSTAR":"0.00028118000000","NORAD_CAT_ID":"48366","ELEMENT_SET_NO":"999","PERIOD":"95.591","EPOCH":"2022-10-04T14:40:04.624896","GP_ID":"214189983","MEAN_MOTION":"15.06412860","FILE":"3591597","OBJECT_ID":"2021-038P","TLE_LINE1":"1 48366U 21038P   22277.61116464  .00003911  00000-0  28118-3 0  9997","OBJECT_TYPE":"PAYLOAD","SITE":"AFETR","REV_AT_EPOCH":"7844","TIME_SYSTEM":"UTC","DECAY_DATE":null,"MEAN_MOTION_DDOT":"0.0000000000000"},{"FILE":"3591197","TLE_LINE1":"1 48367U 21038Q   22277.54113280  .00003030  00000-0  22215-3 0  9997","OBJECT_ID":"2021-038Q","REV_AT_EPOCH":"7843","MEAN_MOTION_DDOT":"0.0000000000000","DECAY_DATE":null,"TIME_SYSTEM":"UTC","OBJECT_TYPE":"PAYLOAD","SITE":"AFETR","COUNTRY_CODE":"US","NORAD_CAT_ID":"48367","BSTAR":"0.00022215000000","ELEMENT_SET_NO":"999","PERIOD":"95.591","SEMIMAJOR_AXIS":"6925.311","MEAN_ANOMALY":"271.3707","MEAN_MOTION":"15.06412370","EPOCH":"2022-10-04T12:59:13.873920","GP_ID":"214158332","CLASSIFICATION_TYPE":"U","INCLINATION":"53.0532","PERIAPSIS":"546.122","EPHEMERIS_TYPE":"0","REF_FRAME":"TEME","ECCENTRICITY":"0.00015210","TLE_LINE2":"2 48367  53.0532 212.7392 0001521  88.7456 271.3707 15.06412370 78439","RA_OF_ASC_NODE":"212.7392","OBJECT_NAME":"STARLINK-2643","RCS_SIZE":"LARGE","MEAN_MOTION_DOT":"0.00003030","APOAPSIS":"548.229","MEAN_ELEMENT_THEORY":"SGP4","CENTER_NAME":"EARTH","ARG_OF_PERICENTER":"88.7456","LAUNCH_DATE":"2021-05-04"},{"REV_AT_EPOCH":"7848","MEAN_MOTION_DDOT":"0.0000000000000","TIME_SYSTEM":"UTC","DECAY_DATE":null,"OBJECT_TYPE":"PAYLOAD","SITE":"AFETR","FILE":"3591597","TLE_LINE1":"1 48368U 21038R   22277.85078638 -.00000438  00000-0 -10533-4 0  9991","OBJECT_ID":"2021-038R","MEAN_MOTION":"15.06402047","GP_ID":"214190985","EPOCH":"2022-10-04T20:25:07.943232","COUNTRY_CODE":"US","ELEMENT_SET_NO":"999","BSTAR":"-0.00001053300000","NORAD_CAT_ID":"48368","PERIOD":"95.592","SEMIMAJOR_AXIS":"6925.342","MEAN_ANOMALY":"285.1320","REF_FRAME":"TEME","ECCENTRICITY":"0.00012400","TLE_LINE2":"2 48368  53.0529 211.6284 0001240  74.9807 285.1320 15.06402047 78488","RA_OF_ASC_NODE":"211.6284","RCS_SIZE":"LARGE","OBJECT_NAME":"STARLINK-2623","MEAN_MOTION_DOT":"-0.00000438","CLASSIFICATION_TYPE":"U","INCLINATION":"53.0529","PERIAPSIS":"546.349","EPHEMERIS_TYPE":"0","ARG_OF_PERICENTER":"74.9807","LAUNCH_DATE":"2021-05-04","MEAN_ELEMENT_THEORY":"SGP4","APOAPSIS":"548.066","CENTER_NAME":"EARTH"},{"FILE":"3591597","TLE_LINE1":"1 48369U 21038S   22277.60378951  .00002991  00000-0  21954-3 0  9998","OBJECT_ID":"2021-038S","REV_AT_EPOCH":"7844","MEAN_MOTION_DDOT":"0.0000000000000","DECAY_DATE":null,"TIME_SYSTEM":"UTC","OBJECT_TYPE":"PAYLOAD","SITE":"AFETR","BSTAR":"0.00021954000000","COUNTRY_CODE":"US","NORAD_CAT_ID":"48369","ELEMENT_SET_NO":"999","PERIOD":"95.591","SEMIMAJOR_AXIS":"6925.316","MEAN_ANOMALY":"285.4434","MEAN_MOTION":"15.06410675","EPOCH":"2022-10-04T14:29:27.413664","GP_ID":"214190234","CLASSIFICATION_TYPE":"U","PERIAPSIS":"546.160","INCLINATION":"53.0524","EPHEMERIS_TYPE":"0","REF_FRAME":"TEME","ECCENTRICITY":"0.00014740","TLE_LINE2":"2 48369  53.0524 212.4602 0001474  74.6718 285.4434 15.06410675 78445","RA_OF_ASC_NODE":"212.4602","RCS_SIZE":"LARGE","MEAN_MOTION_DOT":"0.00002991","OBJECT_NAME":"STARLINK-2641","APOAPSIS":"548.202","MEAN_ELEMENT_THEORY":"SGP4","CENTER_NAME":"EARTH","ARG_OF_PERICENTER":"74.6718","LAUNCH_DATE":"2021-05-04"},{"TLE_LINE1":"1 48370U 21038T   22277.53376122  .00002726  00000-0  20184-3 0  9990","OBJECT_ID":"2021-038T","FILE":"3591331","SITE":"AFETR","OBJECT_TYPE":"PAYLOAD","MEAN_MOTION_DDOT":"0.0000000000000","TIME_SYSTEM":"UTC","DECAY_DATE":null,"REV_AT_EPOCH":"7902","SEMIMAJOR_AXIS":"6925.346","MEAN_ANOMALY":"273.3450","PERIOD":"95.592","COUNTRY_CODE":"US","NORAD_CAT_ID":"48370","BSTAR":"0.00020184000000","ELEMENT_SET_NO":"999","EPOCH":"2022-10-04T12:48:36.969408","GP_ID":"214163878","MEAN_MOTION":"15.06400950","EPHEMERIS_TYPE":"0","CLASSIFICATION_TYPE":"U","PERIAPSIS":"546.095","INCLINATION":"53.0557","RA_OF_ASC_NODE":"212.7709","MEAN_MOTION_DOT":"0.00002726","RCS_SIZE":"LARGE","OBJECT_NAME":"STARLINK-2621","TLE_LINE2":"2 48370  53.0557 212.7709 0001611  86.7723 273.3450 15.06400950 79021","ECCENTRICITY":"0.00016110","REF_FRAME":"TEME","CENTER_NAME":"EARTH","MEAN_ELEMENT_THEORY":"SGP4","APOAPSIS":"548.326","LAUNCH_DATE":"2021-05-04","ARG_OF_PERICENTER":"86.7723"},{"REF_FRAME":"TEME","ECCENTRICITY":"0.00013280","TLE_LINE2":"2 48371  53.0518 213.9861 0001328  88.9394 271.1747 15.06413495 78396","OBJECT_NAME":"STARLINK-2589","RCS_SIZE":"LARGE","MEAN_MOTION_DOT":"0.00004985","RA_OF_ASC_NODE":"213.9861","PERIAPSIS":"546.253","INCLINATION":"53.0518","CLASSIFICATION_TYPE":"U","EPHEMERIS_TYPE":"0","ARG_OF_PERICENTER":"88.9394","LAUNCH_DATE":"2021-05-04","APOAPSIS":"548.092","MEAN_ELEMENT_THEORY":"SGP4","CENTER_NAME":"EARTH","REV_AT_EPOCH":"7839","TIME_SYSTEM":"UTC","DECAY_DATE":null,"MEAN_MOTION_DDOT":"0.0000000000000","OBJECT_TYPE":"PAYLOAD","SITE":"AFETR","FILE":"3591197","OBJECT_ID":"2021-038U","TLE_LINE1":"1 48371U 21038U   22277.26468639  .00004985  00000-0  35321-3 0  9994","MEAN_MOTION":"15.06413495","EPOCH":"2022-10-04T06:21:08.904096","GP_ID":"214158833","BSTAR":"0.00035321000000","COUNTRY_CODE":"US","ELEMENT_SET_NO":"999","NORAD_CAT_ID":"48371","PERIOD":"95.591","MEAN_ANOMALY":"271.1747","SEMIMAJOR_AXIS":"6925.307"},{"MEAN_ANOMALY":"280.9306","SEMIMAJOR_AXIS":"6925.326","PERIOD":"95.592","COUNTRY_CODE":"US","BSTAR":"0.00029198000000","ELEMENT_SET_NO":"999","NORAD_CAT_ID":"48372","EPOCH":"2022-10-04T04:40:18.390720","GP_ID":"214157096","MEAN_MOTION":"15.06407331","TLE_LINE1":"1 48372U 21038V   22277.19465730  .00004071  00000-0  29198-3 0  9997","OBJECT_ID":"2021-038V","FILE":"3591197","SITE":"AFETR","OBJECT_TYPE":"PAYLOAD","MEAN_MOTION_DDOT":"0.0000000000000","TIME_SYSTEM":"UTC","DECAY_DATE":null,"REV_AT_EPOCH":"7838","CENTER_NAME":"EARTH","APOAPSIS":"548.181","MEAN_ELEMENT_THEORY":"SGP4","LAUNCH_DATE":"2021-05-04","ARG_OF_PERICENTER":"79.1843","EPHEMERIS_TYPE":"0","CLASSIFICATION_TYPE":"U","PERIAPSIS":"546.201","INCLINATION":"53.0528","RA_OF_ASC_NODE":"214.2978","RCS_SIZE":"LARGE","MEAN_MOTION_DOT":"0.00004071","OBJECT_NAME":"STARLINK-2572","TLE_LINE2":"2 48372  53.0528 214.2978 0001429  79.1843 280.9306 15.06407331 78384","ECCENTRICITY":"0.00014290","REF_FRAME":"TEME"}];
